STARLINK-32764          
1 62570U 25006S   26068.00523683  .00030599  00000+0  11168-2 0  9996
2 62570  42.9990 296.8116 0001023 259.3279 100.7457 15.27581634 64759
COSMOS 2588             
1 64095U 25109A   26068.81179522  .00009169  00000+0  32611-3 0  9998
2 64095  72.9704  73.5401 0005019 308.6780  51.3966 15.29122656 44425
